[
    {
        "Altitude(m)": 554559.2658340586,
        "Argument of Periapsis(deg)": 0.026491964442854003,
        "Eccentricity": 0.0,
        "Inclination(deg)": 53.0,
        "Latitude(deg)": 26.715221474979145,
        "Longitude(deg)": 59.657369424667515,
        "Mean Anomaly(deg)": 145.82097147031033,
        "RAAN(deg)": 4.960573474112068,
        "Satellite Name": "Starlink Shell 1 28",
        "Satellite Number": 28,
        "Semi-Major Axis(m)": 6931778.249405717,
        "Time(s)": 760
    },
    {
        "Altitude(m)": 554495.7701636939,
        "Argument of Periapsis(deg)": 0.02684054292236524,
        "Eccentricity": 0.0,
        "Inclination(deg)": 53.0,
        "Latitude(deg)": 26.24846258134379,
        "Longitude(deg)": 60.08573215166654,
        "Mean Anomaly(deg)": 146.44780267386707,
        "RAAN(deg)": 4.960054704034595,
        "Satellite Name": "Starlink Shell 1 28",
        "Satellite Number": 28,
        "Semi-Major Axis(m)": 6931778.249405717,
        "Time(s)": 770
    },
    {
        "Altitude(m)": 554433.7591931277,
        "Argument of Periapsis(deg)": 0.027189121401876473,
        "Eccentricity": 0.0,
        "Inclination(deg)": 53.0,
        "Latitude(deg)": 25.780150950922803,
        "Longitude(deg)": 60.51035335766427,
        "Mean Anomaly(deg)": 147.07463387742376,
        "RAAN(deg)": 4.959535933957121,
        "Satellite Name": "Starlink Shell 1 28",
        "Satellite Number": 28,
        "Semi-Major Axis(m)": 6931778.249405717,
        "Time(s)": 780
    },
    {
        "Altitude(m)": 554373.2826343798,
        "Argument of Periapsis(deg)": 0.02753769988138771,
        "Eccentricity": 0.0,
        "Inclination(deg)": 53.0,
        "Latitude(deg)": 25.310329773514,
        "Longitude(deg)": 60.93132725769181,
        "Mean Anomaly(deg)": 147.70146508098048,
        "RAAN(deg)": 4.959017163879649,
        "Satellite Name": "Starlink Shell 1 28",
        "Satellite Number": 28,
        "Semi-Major Axis(m)": 6931778.249405717,
        "Time(s)": 790
    },
    {
        "Altitude(m)": 554314.389607279,
        "Argument of Periapsis(deg)": 0.02788627836089895,
        "Eccentricity": 0.0,
        "Inclination(deg)": 53.0,
        "Latitude(deg)": 24.839041343001973,
        "Longitude(deg)": 61.34874626982892,
        "Mean Anomaly(deg)": 148.3282962845372,
        "RAAN(deg)": 4.958498393802175,
        "Satellite Name": "Starlink Shell 1 28",
        "Satellite Number": 28,
        "Semi-Major Axis(m)": 6931778.249405717,
        "Time(s)": 800
    },
    {
        "Altitude(m)": 554257.1286130082,
        "Argument of Periapsis(deg)": 0.02823485684041019,
        "Eccentricity": 0.0,
        "Inclination(deg)": 53.0,
        "Latitude(deg)": 24.366327084635063,
        "Longitude(deg)": 61.76270153206461,
        "Mean Anomaly(deg)": 148.95512748809392,
        "RAAN(deg)": 4.957979623724704,
        "Satellite Name": "Starlink Shell 1 28",
        "Satellite Number": 28,
        "Semi-Major Axis(m)": 6931778.249405717,
        "Time(s)": 810
    },
    {
        "Altitude(m)": 554201.5475079269,
        "Argument of Periapsis(deg)": 0.028583435319921423,
        "Eccentricity": 0.0,
        "Inclination(deg)": 53.0,
        "Latitude(deg)": 23.8922275817736,
        "Longitude(deg)": 62.173283420876075,
        "Mean Anomaly(deg)": 149.58195869165064,
        "RAAN(deg)": 4.95746085364723,
        "Satellite Name": "Starlink Shell 1 28",
        "Satellite Number": 28,
        "Semi-Major Axis(m)": 6931778.249405717,
        "Time(s)": 820
    },
    {
        "Altitude(m)": 554147.6934776577,
        "Argument of Periapsis(deg)": 0.028932013799432665,
        "Eccentricity": 0.0,
        "Inclination(deg)": 53.0,
        "Latitude(deg)": 23.41678260210601,
        "Longitude(deg)": 62.58058055849422,
        "Mean Anomaly(deg)": 150.20878989520736,
        "RAAN(deg)": 4.956942083569757,
        "Satellite Name": "Starlink Shell 1 28",
        "Satellite Number": 28,
        "Semi-Major Axis(m)": 6931778.249405717,
        "Time(s)": 830
    },
    {
        "Altitude(m)": 554095.6130115102,
        "Argument of Periapsis(deg)": 0.029280592278943897,
        "Eccentricity": 0.0,
        "Inclination(deg)": 53.0,
        "Latitude(deg)": 22.94003112333413,
        "Longitude(deg)": 62.9846803344567,
        "Mean Anomaly(deg)": 150.83562109876405,
        "RAAN(deg)": 4.956423313492285,
        "Satellite Name": "Starlink Shell 1 28",
        "Satellite Number": 28,
        "Semi-Major Axis(m)": 6931778.249405717,
        "Time(s)": 840
    },
    {
        "Altitude(m)": 554045.3518771584,
        "Argument of Periapsis(deg)": 0.029629170758455132,
        "Eccentricity": 0.0,
        "Inclination(deg)": 53.0,
        "Latitude(deg)": 22.46201135832886,
        "Longitude(deg)": 63.385669428435044,
        "Mean Anomaly(deg)": 151.4624523023208,
        "RAAN(deg)": 4.955904543414812,
        "Satellite Name": "Starlink Shell 1 28",
        "Satellite Number": 28,
        "Semi-Major Axis(m)": 6931778.249405717,
        "Time(s)": 850
    },
    {
        "Altitude(m)": 553996.9550956972,
        "Argument of Periapsis(deg)": 0.02997774923796637,
        "Eccentricity": 0.0,
        "Inclination(deg)": 53.0,
        "Latitude(deg)": 21.982760779755615,
        "Longitude(deg)": 63.783632653239415,
        "Mean Anomaly(deg)": 152.0892835058775,
        "RAAN(deg)": 4.95538577333734,
        "Satellite Name": "Starlink Shell 1 28",
        "Satellite Number": 28,
        "Semi-Major Axis(m)": 6931778.249405717,
        "Time(s)": 860
    },
    {
        "Altitude(m)": 553950.4669169908,
        "Argument of Periapsis(deg)": 0.030326327717477602,
        "Eccentricity": 0.0,
        "Inclination(deg)": 53.0,
        "Latitude(deg)": 21.502316144179005,
        "Longitude(deg)": 64.17865432030963,
        "Mean Anomaly(deg)": 152.71611470943418,
        "RAAN(deg)": 4.954867003259867,
        "Satellite Name": "Starlink Shell 1 28",
        "Satellite Number": 28,
        "Semi-Major Axis(m)": 6931778.249405717,
        "Time(s)": 870
    },
    {
        "Altitude(m)": 553905.9307954021,
        "Argument of Periapsis(deg)": 0.030674906196988847,
        "Eccentricity": 0.0,
        "Inclination(deg)": 53.0,
        "Latitude(deg)": 21.020713515645696,
        "Longitude(deg)": 64.57081708467008,
        "Mean Anomaly(deg)": 153.34294591299093,
        "RAAN(deg)": 4.954348233182394,
        "Satellite Name": "Starlink Shell 1 28",
        "Satellite Number": 28,
        "Semi-Major Axis(m)": 6931778.249405717,
        "Time(s)": 880
    },
    {
        "Altitude(m)": 553863.3893658714,
        "Argument of Periapsis(deg)": 0.031023484676500086,
        "Eccentricity": 0.0,
        "Inclination(deg)": 53.0,
        "Latitude(deg)": 20.53798828875692,
        "Longitude(deg)": 64.96020247167591,
        "Mean Anomaly(deg)": 153.96977711654765,
        "RAAN(deg)": 4.9538294631049204,
        "Satellite Name": "Starlink Shell 1 28",
        "Satellite Number": 28,
        "Semi-Major Axis(m)": 6931778.249405717,
        "Time(s)": 890
    },
    {
        "Altitude(m)": 553822.8844203667,
        "Argument of Periapsis(deg)": 0.03137206315601132,
        "Eccentricity": 0.0,
        "Inclination(deg)": 53.0,
        "Latitude(deg)": 20.054175211235385,
        "Longitude(deg)": 65.34689140448641,
        "Mean Anomaly(deg)": 154.59660832010434,
        "RAAN(deg)": 4.953310693027448,
        "Satellite Name": "Starlink Shell 1 28",
        "Satellite Number": 28,
        "Semi-Major Axis(m)": 6931778.249405717,
        "Time(s)": 900
    },
    {
        "Altitude(m)": 553784.45688474,
        "Argument of Periapsis(deg)": 0.03172064163552255,
        "Eccentricity": 0.0,
        "Inclination(deg)": 53.0,
        "Latitude(deg)": 19.569308405993215,
        "Longitude(deg)": 65.73096321930527,
        "Mean Anomaly(deg)": 155.22343952366109,
        "RAAN(deg)": 4.9527919229499755,
        "Satellite Name": "Starlink Shell 1 28",
        "Satellite Number": 28,
        "Semi-Major Axis(m)": 6931778.249405717,
        "Time(s)": 910
    },
    {
        "Altitude(m)": 553748.1467959734,
        "Argument of Periapsis(deg)": 0.0320692201150338,
        "Eccentricity": 0.0,
        "Inclination(deg)": 53.0,
        "Latitude(deg)": 19.083421392712964,
        "Longitude(deg)": 66.11249619405824,
        "Mean Anomaly(deg)": 155.85027072721778,
        "RAAN(deg)": 4.952273152872503,
        "Satellite Name": "Starlink Shell 1 28",
        "Satellite Number": 28,
        "Semi-Major Axis(m)": 6931778.249405717,
        "Time(s)": 920
    },
    {
        "Altitude(m)": 553713.9932798274,
        "Argument of Periapsis(deg)": 0.032417798594545036,
        "Eccentricity": 0.0,
        "Inclination(deg)": 53.0,
        "Latitude(deg)": 18.59654710894956,
        "Longitude(deg)": 66.49156807756104,
        "Mean Anomaly(deg)": 156.4771019307745,
        "RAAN(deg)": 4.95175438279503,
        "Satellite Name": "Starlink Shell 1 28",
        "Satellite Number": 28,
        "Semi-Major Axis(m)": 6931778.249405717,
        "Time(s)": 930
    },
    {
        "Altitude(m)": 553682.0345289406,
        "Argument of Periapsis(deg)": 0.03276637707405627,
        "Eccentricity": 0.0,
        "Inclination(deg)": 53.0,
        "Latitude(deg)": 18.108717930761227,
        "Longitude(deg)": 66.86825510623721,
        "Mean Anomaly(deg)": 157.10393313433121,
        "RAAN(deg)": 4.951235612717556,
        "Satellite Name": "Starlink Shell 1 28",
        "Satellite Number": 28,
        "Semi-Major Axis(m)": 6931778.249405717,
        "Time(s)": 940
    }
]